[{"OBJECT_NAME":"JILIN-1 GAOFEN 2F","OBJECT_ID":"2021-097A","EPOCH":"2026-03-09T22:15:16.366464","MEAN_MOTION":15.06938169,"ECCENTRICITY":0.00186372,"INCLINATION":97.6538,"RA_OF_ASC_NODE":195.5232,"ARG_OF_PERICENTER":201.1609,"MEAN_ANOMALY":158.885,"EPHEMERIS_TYPE":0,"CLASSIFICATION_TYPE":"U","NORAD_CAT_ID":49338,"ELEMENT_SET_NO":999,"REV_AT_EPOCH":24136,"BSTAR":0.0003789548,"MEAN_MOTION_DOT":5.624e-5,"MEAN_MOTION_DDOT":0},{"OBJECT_NAME":"STARLINK-5829","OBJECT_ID":"2023-058AG","EPOCH":"2026-03-09T22:14:50.967456","MEAN_MOTION":15.05648812,"ECCENTRICITY":0.00017544,"INCLINATION":97.6042,"RA_OF_ASC_NODE":71.4736,"ARG_OF_PERICENTER":79.4273,"MEAN_ANOMALY":280.7151,"EPHEMERIS_TYPE":0,"CLASSIFICATION_TYPE":"U","NORAD_CAT_ID":56347,"ELEMENT_SET_NO":999,"REV_AT_EPOCH":15823,"BSTAR":2.3016145e-5,"MEAN_MOTION_DOT":2.71e-6,"MEAN_MOTION_DDOT":0}]
